{
  "type": "FeatureCollection",
  "features": [
    {
      "type": "Feature",
      "properties": {
        "norad_id": 34754,
        "name": "COSMOS 2251 DEB",
        "group": "cosmos-2251-debris",
        "lat": 72.72798089722377,
        "lon": -88.29815948629891,
        "alt_km": 761.749644701008,
        "timestamp": "2025-12-25T03:55:56.762388+00:00",
        "meta_object_name": "COSMOS 2251 DEB",
        "meta_object_id": "1993-036ZY",
        "meta_epoch": "2025-12-24T18:07:08.221728",
        "meta_mean_motion": 14.40497369,
        "meta_eccentricity": 0.0029996,
        "meta_inclination": 74.029,
        "meta_ra_of_asc_node": 205.3771,
        "meta_arg_of_pericenter": 319.2328,
        "meta_mean_anomaly": 164.2685,
        "meta_ephemeris_type": 0,
        "meta_classification_type": "U",
        "meta_norad_cat_id": 34754,
        "meta_element_set_no": 999,
        "meta_rev_at_epoch": 88306,
        "meta_bstar": 0.00018454,
        "meta_mean_motion_dot": 5.63e-06,
        "meta_mean_motion_ddot": 0,
        "tle_line1": "1 34754U 93036ZY  25358.75495627  .00000563  00000+0  18454-3 0  9990",
        "tle_line2": "2 34754  74.0290 205.3771 0029996 319.2328 164.2685 14.40497369883069"
      },
      "geometry": {
        "type": "Point",
        "coordinates": [
          -88.29815948629891,
          72.72798089722377
        ]
      }
    },
    {
      "type": "Feature",
      "properties": {
        "norad_id": 34755,
        "name": "COSMOS 2251 DEB",
        "group": "cosmos-2251-debris",
        "lat": 46.08367314376206,
        "lon": 72.63197192551117,
        "alt_km": 1341.9422748908528,
        "timestamp": "2025-12-25T03:55:56.762398+00:00",
        "meta_object_name": "COSMOS 2251 DEB",
        "meta_object_id": "1993-036ZZ",
        "meta_epoch": "2025-12-24T04:56:33.131328",
        "meta_mean_motion": 13.50577915,
        "meta_eccentricity": 0.04079556,
        "meta_inclination": 73.9256,
        "meta_ra_of_asc_node": 271.595,
        "meta_arg_of_pericenter": 289.4091,
        "meta_mean_anomaly": 228.1586,
        "meta_ephemeris_type": 0,
        "meta_classification_type": "U",
        "meta_norad_cat_id": 34755,
        "meta_element_set_no": 999,
        "meta_rev_at_epoch": 82678,
        "meta_bstar": 0.00071802479,
        "meta_mean_motion_dot": 7.5e-06,
        "meta_mean_motion_ddot": 0,
        "tle_line1": "1 34755U 93036ZZ  25358.20593902  .00000750  00000+0  71802-3 0  9990",
        "tle_line2": "2 34755  73.9256 271.5950 0407955 289.4091 228.1586 13.50577915826786"
      },
      "geometry": {
        "type": "Point",
        "coordinates": [
          72.63197192551117,
          46.08367314376206
        ]
      }
    },
    {
      "type": "Feature",
      "properties": {
        "norad_id": 34756,
        "name": "COSMOS 2251 DEB",
        "group": "cosmos-2251-debris",
        "lat": 63.54612187790723,
        "lon": 119.14346317450133,
        "alt_km": 1089.176484475065,
        "timestamp": "2025-12-25T03:55:56.762408+00:00",
        "meta_object_name": "COSMOS 2251 DEB",
        "meta_object_id": "1993-036AAA",
        "meta_epoch": "2025-12-24T15:18:41.453856",
        "meta_mean_motion": 13.67272702,
        "meta_eccentricity": 0.0345926,
        "meta_inclination": 74.0032,
        "meta_ra_of_asc_node": 84.8024,
        "meta_arg_of_pericenter": 318.0621,
        "meta_mean_anomaly": 39.4462,
        "meta_ephemeris_type": 0,
        "meta_classification_type": "U",
        "meta_norad_cat_id": 34756,
        "meta_element_set_no": 999,
        "meta_rev_at_epoch": 83584,
        "meta_bstar": 0.0010748,
        "meta_mean_motion_dot": 1.342e-05,
        "meta_mean_motion_ddot": 0,
        "tle_line1": "1 34756U 93036AAA 25358.63797979  .00001342  00000+0  10748-2 0  9997",
        "tle_line2": "2 34756  74.0032  84.8024 0345926 318.0621  39.4462 13.67272702835842"
      },
      "geometry": {
        "type": "Point",
        "coordinates": [
          119.14346317450133,
          63.54612187790723
        ]
      }
    },
    {
      "type": "Feature",
      "properties": {
        "norad_id": 34758,
        "name": "COSMOS 2251 DEB",
        "group": "cosmos-2251-debris",
        "lat": 45.488748946015555,
        "lon": 82.65571351314273,
        "alt_km": 1036.048763173455,
        "timestamp": "2025-12-25T03:55:56.762418+00:00",
        "meta_object_name": "COSMOS 2251 DEB",
        "meta_object_id": "1993-036AAC",
        "meta_epoch": "2025-12-24T18:28:50.337120",
        "meta_mean_motion": 13.58114698,
        "meta_eccentricity": 0.0382367,
        "meta_inclination": 74.1071,
        "meta_ra_of_asc_node": 280.1352,
        "meta_arg_of_pericenter": 41.0449,
        "meta_mean_anomaly": 321.8771,
        "meta_ephemeris_type": 0,
        "meta_classification_type": "U",
        "meta_norad_cat_id": 34758,
        "meta_element_set_no": 999,
        "meta_rev_at_epoch": 83073,
        "meta_bstar": 0.00177,
        "meta_mean_motion_dot": 2.046e-05,
        "meta_mean_motion_ddot": 0,
        "tle_line1": "1 34758U 93036AAC 25358.77002705  .00002046  00000+0  17700-2 0  9997",
        "tle_line2": "2 34758  74.1071 280.1352 0382367  41.0449 321.8771 13.58114698830737"
      },
      "geometry": {
        "type": "Point",
        "coordinates": [
          82.65571351314273,
          45.488748946015555
        ]
      }
    },
    {
      "type": "Feature",
      "properties": {
        "norad_id": 34760,
        "name": "COSMOS 2251 DEB",
        "group": "cosmos-2251-debris",
        "lat": -60.59853172725822,
        "lon": 130.65626658065526,
        "alt_km": 826.2997363927143,
        "timestamp": "2025-12-25T03:55:56.762428+00:00",
        "meta_object_name": "COSMOS 2251 DEB",
        "meta_object_id": "1993-036AAE",
        "meta_epoch": "2025-12-24T01:28:23.948256",
        "meta_mean_motion": 14.19597279,
        "meta_eccentricity": 0.00972507,
        "meta_inclination": 74.0632,
        "meta_ra_of_asc_node": 282.1544,
        "meta_arg_of_pericenter": 331.8048,
        "meta_mean_anomaly": 42.2562,
        "meta_ephemeris_type": 0,
        "meta_classification_type": "U",
        "meta_norad_cat_id": 34760,
        "meta_element_set_no": 999,
        "meta_rev_at_epoch": 86849,
        "meta_bstar": 0.00055863111,
        "meta_mean_motion_dot": 1.211e-05,
        "meta_mean_motion_ddot": 0,
        "tle_line1": "1 34760U 93036AAE 25358.06138829  .00001211  00000+0  55863-3 0  9995",
        "tle_line2": "2 34760  74.0632 282.1544 0097250 331.8048  42.2562 14.19597279868490"
      },
      "geometry": {
        "type": "Point",
        "coordinates": [
          130.65626658065526,
          -60.59853172725822
        ]
      }
    },
    {
      "type": "Feature",
      "properties": {
        "norad_id": 34761,
        "name": "COSMOS 2251 DEB",
        "group": "cosmos-2251-debris",
        "lat": -73.93522824686126,
        "lon": -104.10310164686142,
        "alt_km": 775.7864211980313,
        "timestamp": "2025-12-25T03:55:56.762438+00:00",
        "meta_object_name": "COSMOS 2251 DEB",
        "meta_object_id": "1993-036AAF",
        "meta_epoch": "2025-12-24T04:58:02.700480",
        "meta_mean_motion": 14.38089541,
        "meta_eccentricity": 0.00370278,
        "meta_inclination": 74.0286,
        "meta_ra_of_asc_node": 341.6577,
        "meta_arg_of_pericenter": 12.6034,
        "meta_mean_anomaly": 347.6036,
        "meta_ephemeris_type": 0,
        "meta_classification_type": "U",
        "meta_norad_cat_id": 34761,
        "meta_element_set_no": 999,
        "meta_rev_at_epoch": 87814,
        "meta_bstar": 0.00063419722,
        "meta_mean_motion_dot": 1.911e-05,
        "meta_mean_motion_ddot": 0,
        "tle_line1": "1 34761U 93036AAF 25358.20697570  .00001911  00000+0  63420-3 0  9990",
        "tle_line2": "2 34761  74.0286 341.6577 0037027  12.6034 347.6036 14.38089541878148"
      },
      "geometry": {
        "type": "Point",
        "coordinates": [
          -104.10310164686142,
          -73.93522824686126
        ]
      }
    },
    {
      "type": "Feature",
      "properties": {
        "norad_id": 34784,
        "name": "COSMOS 2251 DEB",
        "group": "cosmos-2251-debris",
        "lat": 70.53542289674675,
        "lon": -5.181433394404652,
        "alt_km": 652.4363759481612,
        "timestamp": "2025-12-25T03:55:56.762448+00:00",
        "meta_object_name": "COSMOS 2251 DEB",
        "meta_object_id": "1993-036AAM",
        "meta_epoch": "2025-12-23T20:20:47.467104",
        "meta_mean_motion": 14.60826245,
        "meta_eccentricity": 0.004917,
        "meta_inclination": 74.0068,
        "meta_ra_of_asc_node": 303.0929,
        "meta_arg_of_pericenter": 109.1167,
        "meta_mean_anomaly": 251.5332,
        "meta_ephemeris_type": 0,
        "meta_classification_type": "U",
        "meta_norad_cat_id": 34784,
        "meta_element_set_no": 999,
        "meta_rev_at_epoch": 88697,
        "meta_bstar": 0.00043134,
        "meta_mean_motion_dot": 2.114e-05,
        "meta_mean_motion_ddot": 0,
        "tle_line1": "1 34784U 93036AAM 25357.84777161  .00002114  00000+0  43134-3 0  9995",
        "tle_line2": "2 34784  74.0068 303.0929 0049170 109.1167 251.5332 14.60826245886972"
      },
      "geometry": {
        "type": "Point",
        "coordinates": [
          -5.181433394404652,
          70.53542289674675
        ]
      }
    }
  ]
}